[{"OBJECT_NAME":"XINGYUN-2 01","OBJECT_ID":"2020-028A","EPOCH":"2026-03-09T23:27:57.512736","MEAN_MOTION":15.11323975,"ECCENTRICITY":0.00090563,"INCLINATION":97.4853,"RA_OF_ASC_NODE":63.3977,"ARG_OF_PERICENTER":174.572,"MEAN_ANOMALY":185.561,"EPHEMERIS_TYPE":0,"CLASSIFICATION_TYPE":"U","NORAD_CAT_ID":45602,"ELEMENT_SET_NO":999,"REV_AT_EPOCH":31985,"BSTAR":0.000253969,"MEAN_MOTION_DOT":4.22e-5,"MEAN_MOTION_DDOT":0},{"OBJECT_NAME":"STARLINK-3793","OBJECT_ID":"2022-045BB","EPOCH":"2026-03-09T12:30:55.941120","MEAN_MOTION":15.0884208,"ECCENTRICITY":0.00012382,"INCLINATION":53.2181,"RA_OF_ASC_NODE":179.9069,"ARG_OF_PERICENTER":93.1359,"MEAN_ANOMALY":266.9775,"EPHEMERIS_TYPE":0,"CLASSIFICATION_TYPE":"U","NORAD_CAT_ID":52380,"ELEMENT_SET_NO":999,"REV_AT_EPOCH":21603,"BSTAR":-5.1602336e-5,"MEAN_MOTION_DOT":-1.109e-5,"MEAN_MOTION_DDOT":0}]
